[{"OBJECT_NAME":"STARLINK-35569","OBJECT_ID":"2025-262R","EPOCH":"2026-03-09T00:14:08.728800","MEAN_MOTION":15.27594777,"ECCENTRICITY":5.701e-5,"INCLINATION":42.9935,"RA_OF_ASC_NODE":299.9058,"ARG_OF_PERICENTER":217.453,"MEAN_ANOMALY":142.6282,"EPHEMERIS_TYPE":0,"CLASSIFICATION_TYPE":"U","NORAD_CAT_ID":66471,"ELEMENT_SET_NO":999,"REV_AT_EPOCH":1880,"BSTAR":0.0010944296,"MEAN_MOTION_DOT":0.0002999,"MEAN_MOTION_DDOT":0},{"OBJECT_NAME":"CZ-6A DEB","OBJECT_ID":"2022-151NB","EPOCH":"2026-03-09T18:26:17.609568","MEAN_MOTION":15.22372787,"ECCENTRICITY":0.00267955,"INCLINATION":98.6489,"RA_OF_ASC_NODE":154.0342,"ARG_OF_PERICENTER":180.4296,"MEAN_ANOMALY":179.6918,"EPHEMERIS_TYPE":0,"CLASSIFICATION_TYPE":"U","NORAD_CAT_ID":54601,"ELEMENT_SET_NO":999,"REV_AT_EPOCH":17694,"BSTAR":0.011449911,"MEAN_MOTION_DOT":0.00276508,"MEAN_MOTION_DDOT":0}]
